OBJECT_NAME,OBJECT_ID,EPOCH,MEAN_MOTION,ECCENTRICITY,INCLINATION,RA_OF_ASC_NODE,ARG_OF_PERICENTER,MEAN_ANOMALY,EPHEMERIS_TYPE,CLASSIFICATION_TYPE,NORAD_CAT_ID,ELEMENT_SET_NO,REV_AT_EPOCH,BSTAR,MEAN_MOTION_DOT,MEAN_MOTION_DDOT
NPSAT1,2019-036B,2026-06-13T12:44:19.212288,14.74551372,.00075573,23.9993,241.5770,164.2386,195.8346,0,U,44340,999,37195,.70578251E-3,.5052E-4,0
FORMOSAT 7-3,2019-036E,2026-06-13T11:35:14.204256,15.09778691,.00005134,23.9977,204.0393,189.6992,170.3502,0,U,44343,999,38268,.22384698E-3,.4057E-4,0
FORMOSAT 7-1,2019-036L,2026-06-13T09:06:41.833440,14.96489732,.0000965,23.9981,58.0614,122.2870,237.7725,0,U,44349,999,38408,.19877001E-3,.2616E-4,0
FORMOSAT 7-4,2019-036M,2026-06-13T12:51:04.008384,14.96484230,.00013533,23.9975,119.1166,138.0136,222.0469,0,U,44350,999,38352,.1951164E-3,.2573E-4,0
FORMOSAT 7-2,2019-036N,2026-06-13T16:35:16.605888,14.96486211,.0000938,23.9963,172.3848,128.3197,231.7388,0,U,44351,999,38306,.18177E-3,.2418E-4,0
FORMOSAT 7-6,2019-036Q,2026-06-13T19:47:00.620736,14.96498287,.0001385,24.0001,352.3014,64.0833,295.9811,0,U,44353,999,38131,.21331E-3,.2785E-4,0
FORMOSAT 7-5,2019-036V,2026-06-13T16:02:14.881056,14.96504999,.0000674,23.9989,292.1070,103.4426,256.6150,0,U,44358,999,38182,.21175E-3,.2767E-4,0
METEOR-M2 2,2019-038A,2026-06-13T20:56:54.774816,14.24365324,.0002146,98.9137,152.1089,53.5648,306.5728,0,U,44387,999,36082,.7436E-4,.126E-5,0
COSMOS 2535,2019-039A,2026-06-13T20:32:39.973344,14.91936370,.0007278,97.5767,193.1473,214.4921,145.5827,0,U,44421,999,37614,.84063E-4,.797E-5,0
GLOBAL-4,2019-054E,2026-06-13T15:06:17.131680,15.64091310,.0006317,45.0059,256.9256,315.1057,44.9329,0,U,44499,999,37980,.53461E-3,.51905E-3,0
ZY-1 02D,2019-059A,2026-06-13T20:42:36.623232,14.35458162,.0002379,98.3196,226.4651,111.3963,248.7478,0,U,44528,999,35386,.22469E-4,.23E-6,0
TAURUS-1 (JINNIUZUO 1),2019-059C,2026-06-13T20:15:39.083040,14.72065782,.0007598,98.6406,329.4652,328.4912,31.5837,0,U,44530,999,35815,.89982E-3,.5606E-4,0
ZHUHAI-1 03B,2019-060C,2026-06-13T20:02:20.174208,15.53919116,.0007655,97.5517,322.4198,331.6257,28.4578,0,U,44536,999,37580,.46915E-3,.30242E-3,0
ZHUHAI-1 03D,2019-060E,2026-06-13T19:14:02.536800,15.49575204,.0006718,97.5382,314.5354,314.8728,45.1977,0,U,44538,999,37555,.54175E-3,.29909E-3,0
ZHUHAI-1 03E,2019-060F,2026-06-13T20:48:25.420896,15.40969237,.0006194,97.5601,314.6992,44.3501,315.8241,0,U,44539,999,37525,.43329E-3,.1779E-3,0
ATLAS 5 CENTAUR DEB,2018-079BG,2026-06-13T07:41:49.926336,1.77426445,.472227,13.6190,39.5943,298.6048,22.0542,0,U,44694,999,4649,0,-.77E-6,0
GAOFEN-7,2019-072A,2026-06-13T20:16:32.174112,15.21578700,.0017658,97.2434,226.4376,51.8554,308.4271,0,U,44703,999,36713,.19986E-3,.4458E-4,0
JILIN-1 GAOFEN 2A,2019-075A,2026-06-13T19:40:22.630368,15.39227032,.0007552,97.4973,248.5307,97.4587,262.7516,0,U,44777,999,36436,.35058E-3,.13573E-3,0
NINGXIA-1 1,2019-076A,2026-06-13T18:16:07.982400,14.02037833,.0010422,45.0037,195.1625,146.7036,213.4455,0,U,44779,999,33737,.27841E-4,-.87E-6,0
NINGXIA-1 5,2019-076E,2026-06-13T18:35:26.644416,14.02084760,.0009918,45.0040,194.4449,135.7359,224.4270,0,U,44783,999,33729,-.68444E-4,-.235E-5,0
KL-ALPHA A,2019-077A,2026-06-13T20:57:54.686304,13.56042509,.0013146,88.9259,222.9268,114.1086,246.1444,0,U,44785,999,32528,-.80485E-5,.7E-7,0
CARTOSAT-3,2019-081A,2026-06-13T20:44:24.948096,15.19256637,.0012779,97.4310,226.7842,159.2092,200.9665,0,U,44804,999,36296,.13913E-3,.287E-4,0
JILIN-1 GAOFEN 2B,2019-086A,2026-06-13T20:34:17.047200,15.20678539,.0013139,97.4889,236.8686,336.9009,23.1634,0,U,44836,999,35998,.27783E-3,.6047E-4,0
TIANQIN 1 (CAS-6),2019-093A,2026-06-13T19:27:12.352896,14.95420676,.0012485,97.7812,248.6755,67.3261,292.9279,0,U,44879,999,35154,.1495E-3,.1596E-4,0
ETRSS-1,2019-093B,2026-06-13T19:38:25.528992,14.95848719,.001245,97.7824,249.1390,67.2951,292.9584,0,U,44880,999,35155,.23784E-3,.2602E-4,0
TIANYAN 01,2019-093C,2026-06-13T19:31:47.368416,14.86513235,.0015017,97.7534,237.1278,96.9993,263.2931,0,U,44881,999,35091,.1007E-3,.839E-5,0
TIANYAN 02,2019-093D,2026-06-13T20:41:27.287232,15.05193986,.0014378,97.7946,259.6198,40.5089,319.7205,0,U,44882,999,35211,.50001E-3,.7086E-4,0
CBERS 4A,2019-093E,2026-06-13T20:21:13.385376,14.81788314,.0002193,98.0127,232.2847,359.5454,0.5756,0,U,44883,999,35058,.5979E-4,.418E-5,0
WEILAI 1R,2019-093F,2026-06-13T20:29:41.662752,15.00617896,.001793,97.7855,254.7346,46.4873,313.7837,0,U,44884,999,35192,.33146E-3,.4141E-4,0
FLORIPASAT-1,2019-093G,2026-06-13T19:58:10.720992,15.03841530,.0013043,97.7914,259.0389,82.2164,278.0542,0,U,44885,999,35214,.3627E-3,.4937E-4,0
SHUNTIAN,2019-093H,2026-06-13T20:41:05.466048,14.95145174,.0013333,97.8011,253.0393,78.4633,281.8084,0,U,44886,999,35168,.34051E-3,.3685E-4,0
2019-093L,2019-093L,2026-06-13T20:09:06.026112,14.94519409,.0013389,97.7562,243.1392,65.8633,294.3986,0,U,44889,999,35130,.23874E-3,.2525E-4,0
ELEKTRO-L 3,2019-095A,2026-06-13T20:21:25.631712,1.00271610,.000102,0.2471,81.5582,353.9641,207.9471,0,U,44903,999,2367,0,-.86E-6,0
GONETS-M 14,2019-096A,2026-06-13T19:52:41.356416,12.42869873,.0013362,82.5234,86.7226,155.1066,205.0661,0,U,44905,999,29326,.32495E-3,.55E-6,0
GONETS-M 15,2019-096B,2026-06-13T20:35:01.810176,12.42871300,.0014754,82.5253,87.1653,178.7769,181.3350,0,U,44906,999,29323,.43459E-4,.16E-6,0
GONETS-M 16,2019-096C,2026-06-13T21:12:51.709248,12.42891435,.0009721,82.5200,86.1030,222.5966,137.4361,0,U,44907,999,29322,-.20308E-3,-.18E-6,0
RS-44 & BREEZE-KM R/B,2019-096E,2026-06-13T17:19:03.749088,12.79748789,.0218031,82.5218,342.0083,152.2450,209.0490,0,U,44909,999,30190,.61609E-4,.28E-6,0
JILIN-1 KUANFU 01,2020-003A,2026-06-13T20:11:27.238272,15.10706751,.0008543,97.5032,238.8616,321.1116,38.9499,0,U,45016,999,35482,.16524E-3,.2675E-4,0
XINGYUN-2 01,2020-028A,2026-06-13T19:58:57.482400,15.11794537,.0008037,97.4863,157.2993,204.6976,155.3871,0,U,45602,999,33433,.10338E-3,.1702E-4,0
XINGYUN-2 02,2020-028B,2026-06-13T19:27:18.811296,15.11525663,.0009216,97.5068,170.8608,286.9764,73.0456,0,U,45603,999,33432,.95315E-4,.1552E-4,0
HAIYANG-1D,2020-036A,2026-06-13T20:00:23.140224,14.34171761,.0003217,98.4552,106.5858,135.9744,224.1698,0,U,45721,999,31449,-.88358E-5,-.68E-6,0
M2 PATHFINDER,2020-037E,2026-06-13T18:55:09.341184,15.04664966,.0012231,97.8152,355.9823,156.5798,203.5988,0,U,45727,999,32498,.16628E-3,.2277E-4,0
GAOFEN DUOMO (GFDM),2020-042A,2026-06-13T21:18:08.893152,14.76876175,.0012483,97.7754,224.8935,83.9263,276.3370,0,U,45856,999,32052,.10789E-3,.71E-5,0
ZIYUAN 3-03 (ZY 3-03),2020-051A,2026-06-13T19:55:06.039264,15.21507315,.0003522,97.2842,232.6641,337.7706,22.3377,0,U,45939,999,32683,.19218E-3,.4258E-4,0
NEMO-HD,2020-061F,2026-06-13T19:48:59.696352,15.44532021,.0002406,97.1927,226.8123,85.2438,274.9086,0,U,46277,999,32146,.23886E-3,.11001E-3,0
3CAT-5A,2020-061W,2026-06-13T16:20:53.742048,15.45997188,.000314,97.2413,227.5773,121.4445,238.7112,0,U,46292,999,32048,.34042E-3,.16531E-3,0
3CAT-5B,2020-061X,2026-06-13T17:34:42.015936,15.47370147,.0003393,97.2405,228.6045,121.9809,238.1771,0,U,46293,999,32052,.35659E-3,.18164E-3,0
NAPA-1,2020-061BA,2026-06-13T20:14:55.756896,15.67570503,.0001306,97.2472,238.9139,168.9759,191.1531,0,U,46320,999,32121,.6723E-3,.73447E-3,0
JILIN-1 GAOFEN 3E,2020-065D,2026-06-13T19:54:53.083584,15.63256690,.0012681,97.2254,217.3614,167.7452,192.4118,0,U,46457,999,31923,.67796E-3,.62565E-3,0
JILIN-1 GAOFEN 3F,2020-065E,2026-06-13T20:22:29.379360,15.60586335,.0014274,97.2206,214.7326,156.6632,203.5277,0,U,46458,999,31918,.65967E-3,.5491E-3,0
JILIN-1 GAOFEN 3G,2020-065F,2026-06-13T20:03:07.282944,15.70656699,.0008955,97.2281,221.4669,75.6239,284.6017,0,U,46459,999,31941,.77378E-3,.96411E-3,0
JILIN-1 GAOFEN 3H,2020-065G,2026-06-13T20:43:43.603968,15.67331164,.0003969,97.2220,217.8442,9.9388,350.1951,0,U,46460,999,31936,.71814E-3,.77772E-3,0
HAIYANG-2C,2020-066A,2026-06-13T18:25:49.418112,13.83374583,.0009055,65.9971,223.7969,238.1264,121.8924,0,U,46469,999,28902,-.46728E-4,-.133E-5,0
HJ-2A,2020-067A,2026-06-13T20:16:09.776640,14.76511971,.0002396,97.8830,243.2960,286.5145,73.5802,0,U,46478,999,30776,.1053E-3,.684E-5,0
HJ-2B,2020-067B,2026-06-13T19:31:49.786752,14.76554410,.0001202,97.8894,244.2846,94.7613,265.3735,0,U,46479,999,30776,.94298E-4,.608E-5,0
GONETS-M 17,2020-068A,2026-06-13T19:53:03.740064,12.42872931,.0023219,82.4989,349.5931,44.4793,315.8146,0,U,46486,999,25874,-.10134E-3,-.4E-7,0
GONETS-M 18,2020-068B,2026-06-13T20:56:38.704416,12.42873345,.0020461,82.4942,348.6846,41.1515,319.1103,0,U,46487,999,25873,.2673E-3,.47E-6,0
GONETS-M 19,2020-068C,2026-06-13T20:21:18.823392,12.42892042,.0014371,82.4967,349.1497,56.2790,303.9657,0,U,46488,999,25883,.59344E-4,.18E-6,0
DEKART,2020-068H,2026-06-13T19:43:50.589984,15.37280646,.0007118,97.8735,173.8511,301.5683,58.4865,0,U,46493,999,31525,.34816E-3,.12641E-3,0
NORBI,2020-068J,2026-06-13T20:40:04.628352,15.48326572,.0004557,97.8619,180.5332,261.4533,98.6199,0,U,46494,999,31569,.45428E-3,.23958E-3,0
SALSAT,2020-068K,2026-06-13T19:25:47.720640,15.29755280,.000829,97.8845,167.6684,322.4274,37.6385,0,U,46495,999,31484,.28306E-3,.8083E-4,0
ICEYE-X6,2020-068M,2026-06-13T20:46:58.911168,15.04504856,.0008532,98.0967,158.3782,99.9387,260.2801,0,U,46497,999,31273,.27161E-3,.3739E-4,0
NETSAT-4,2020-068U,2026-06-13T11:52:54.415200,15.43750464,.000428,97.8598,172.4392,354.6023,5.5177,0,U,46504,999,31520,.40574102E-3,.18266E-3,0
NETSAT-3,2020-068V,2026-06-13T13:31:15.758112,15.42560574,.0004719,97.8647,170.7339,14.9455,345.1929,0,U,46505,999,31512,.43651E-3,.18891E-3,0
NETSAT-1,2020-068W,2026-06-13T17:52:28.136640,15.34568766,.0005414,97.8740,165.3013,42.6362,317.5298,0,U,46506,999,31477,.39173E-3,.13046E-3,0
NETSAT-2,2020-068X,2026-06-13T12:57:52.153344,15.45852892,.00038991,97.8612,172.3690,37.7157,322.4364,0,U,46507,999,31517,.46446011E-3,.22485E-3,0
